0 COSMOS 1595 (GLONASS)
1 15261U 84095C   13281.35029479  .00000032  00000-0  00000+0 0  7403
2 15261 064.0824 231.2488 0036147 208.9727 317.2297 02.13102715200752
0 COSMOS 1595 (GLONASS)
1 15261U 84095C   13283.70372906  .00000023  00000-0  00000+0 0  7411
2 15261 064.0817 231.1671 0036125 208.8789 322.8062 02.13102798200809
0 COSMOS 1595 (GLONASS)
1 15261U 84095C   13285.70459661 -.00000004  00000-0  00000+0 0  7428
2 15261 064.0812 231.0976 0036099 208.8054 057.8840 02.13102850200848
0 COSMOS 1595 (GLONASS)
1 15261U 84095C   13288.36652751 -.00000037  00000-0  00000+0 0  7435
2 15261 064.0806 231.0053 0036069 208.7412 300.1017 02.13102939200894
0 COSMOS 1595 (GLONASS)
1 15261U 84095C   13290.51851213 -.00000001  00000-0  10000-3 0  7446
2 15261 064.0811 230.9297 0036299 209.2509 150.5343 02.13103655200936
0 COSMOS 1595 (GLONASS)
1 15261U 84095C   13290.83670443 -.00000035  00000-0  00000+0 0  7458
2 15261 064.0801 230.9196 0036008 208.6796 035.2103 02.13102909200958
0 COSMOS 1595 (GLONASS)
1 15261U 84095C   13293.20462293 -.00000014  00000-0  00000+0 0  7462
2 15261 064.0796 230.8376 0035939 208.6125 051.8756 02.13102892201004
